{
  "type": "FeatureCollection",
  "features": [
    {
      "type": "Feature",
      "properties": {
        "bu_name": "FAISALABAD",
        "color": "#00BCD4"
      },
      "geometry": {
        "type": "Polygon",
        "coordinates": [
          [
            [
              73.12346933093937,
              31.7727399117009
            ],
            [
              72.27569207560515,
              31.57054540736382
            ],
            [
              71.80838346307851,
              30.82676048196285
            ],
            [
              71.72989962887017,
              30.68786458484225
            ],
            [
              71.74754959715034,
              30.6074411916228
            ],
            [
              71.99550921604575,
              30.71108635158172
            ],
            [
              72.11585145676511,
              30.75367320649301
            ],
            [
              72.28441478451542,
              30.74641434606776
            ],
            [
              72.51128302582529,
              30.79563163865636
            ],
            [
              72.59332056169079,
              30.75114010477239
            ],
            [
              72.71711602182872,
              30.70202290323529
            ],
            [
              72.81869862303667,
              30.73512824838127
            ],
            [
              72.87378838734048,
              30.7492595265923
            ],
            [
              72.95392400786214,
              30.80675209982222
            ],
            [
              73.0585952008344,
              30.84804695629592
            ],
            [
              73.17708925879882,
              30.96679427924938
            ],
            [
              73.28452447435507,
              31.04469919603079
            ],
            [
              73.3107872075254,
              31.18449399243449
            ],
            [
              73.52195142647314,
              31.13099329627179
            ],
            [
              73.3875571032516,
              31.5235295421407
            ],
            [
              73.5623455789621,
              31.25250235646759
            ],
            [
              73.45415364661295,
              31.63002195172849
            ],
            [
              73.49073487136633,
              31.71191524519984
            ],
            [
              73.56126941660219,
              31.72970562782233
            ],
            [
              73.5462454513044,
              31.7987413969412
            ],
            [
              73.6508186159676,
              31.83367490154394
            ],
            [
              73.58836191694265,
              31.8673555580842
            ],
            [
              73.12346933093937,
              31.7727399117009
            ]
          ]
        ]
      }
    },
    {
      "type": "Feature",
      "properties": {
        "bu_name": "MULTAN",
        "color": "#f58220"
      },
      "geometry": {
        "type": "Polygon",
        "coordinates": [
          [
            [
              72.05947421732887,
              30.72820655034171
            ],
            [
              71.76995758997727,
              30.55915988717101
            ],
            [
              71.55829229618156,
              30.92610132475251
            ],
            [
              71.44246691432728,
              31.26470603526745
            ],
            [
              71.26947972858393,
              31.43880996362337
            ],
            [
              71.23637202820342,
              31.39649652988653
            ],
            [
              71.25276387492663,
              31.3161838629837
            ],
            [
              71.02988008730885,
              31.48967565277629
            ],
            [
              70.93257345542573,
              31.39404695425953
            ],
            [
              70.68295238159601,
              31.28298038463697
            ],
            [
              70.45515178909935,
              31.26351897082459
            ],
            [
              70.44416872559398,
              31.24298027341426
            ],
            [
              70.4402581375634,
              31.16017368921168
            ],
            [
              70.43484451854053,
              31.1492263546907
            ],
            [
              70.47548076492788,
              30.78166987732162
            ],
            [
              70.60193631442013,
              30.53931870337576
            ],
            [
              70.72000378759161,
              30.48933778429847
            ],
            [
              70.82066157103047,
              30.50013383265432
            ],
            [
              71.01506440232583,
              30.18730382957536
            ],
            [
              71.23219882811836,
              30.56008245327074
            ],
            [
              71.43844446204737,
              30.31739656149658
            ],
            [
              71.34621138481569,
              30.15582786573781
            ],
            [
              71.3174185128151,
              30.06361445132173
            ],
            [
              71.28365234399759,
              29.91056901038749
            ],
            [
              71.20252115306579,
              29.66642667431385
            ],
            [
              71.22555383865698,
              29.65655456352256
            ],
            [
              71.15315334171595,
              29.58393089141526
            ],
            [
              70.78579913171416,
              29.08511525581278
            ],
            [
              70.66240361708361,
              28.96620579412897
            ],
            [
              70.56283437952939,
              28.92958389452011
            ],
            [
              70.44442454591966,
              28.88863469580648
            ],
            [
              70.36902138799977,
              28.77741370607768
            ],
            [
              70.25281759726309,
              28.66845888724073
            ],
            [
              70.1381632363362,
              28.60094599401943
            ],
            [
              70.00453224790584,
              28.50498941883313
            ],
            [
              69.88260757507173,
              28.45003487369778
            ],
            [
              69.87068296487936,
              28.36071508050845
            ],
            [
              69.8508386601716,
              28.25135280389012
            ],
            [
              69.89559050314183,
              28.19885336542601
            ],
            [
              69.96674620719034,
              28.16803064940723
            ],
            [
              70.0567175422297,
              28.18541249860502
            ],
            [
              70.1683824979749,
              28.2891067852699
            ],
            [
              70.54400274039985,
              28.2939666154061
            ],
            [
              70.71495437562001,
              28.46934965503694
            ],
            [
              71.00694398121928,
              28.92360520069329
            ],
            [
              71.69905986419543,
              28.97924413009715
            ],
            [
              71.82213936194847,
              29.13376145786054
            ],
            [
              71.89212001052667,
              29.40008569164345
            ],
            [
              72.25917440923364,
              29.53964766561996
            ],
            [
              72.57484995323678,
              29.641036289998
            ],
            [
              72.5900157828359,
              29.72908993936801
            ],
            [
              72.71911287028925,
              29.93673765149221
            ],
            [
              72.92235685412614,
              30.06193860126797
            ],
            [
              73.04458170254057,
              30.26809871758103
            ],
            [
              72.62829495662871,
              30.42093527207771
            ],
            [
              72.96168364181007,
              30.23769744000728
            ],
            [
              72.95922785036596,
              30.23433525983393
            ],
            [
              72.05947421732887,
              30.72820655034171
            ]
          ]
        ]
      }
    },
    {
      "type": "Feature",
      "properties": {
        "bu_name": "DG KHAN",
        "color": "#AB1DFE"
      },
      "geometry": {
        "type": "Polygon",
        "coordinates": [
          [
            [
              69.9841129471311,
              29.94085275779887
            ],
            [
              70.1186246304074,
              29.55416792504532
            ],
            [
              70.2072620492506,
              29.03090740668335
            ],
            [
              70.1741805837884,
              28.9159109429708
            ],
            [
              69.86412879625293,
              28.69341189710725
            ],
            [
              69.89988186916524,
              28.66860119520845
            ],
            [
              69.95567416309979,
              28.67015750902196
            ],
            [
              70.39640639705122,
              28.9432660870049
            ],
            [
              70.46419647961596,
              28.97251188531052
            ],
            [
              70.58384112987676,
              29.0568410634049
            ],
            [
              70.73937728689472,
              29.16329815026145
            ],
            [
              70.8393505021257,
              29.23874677857938
            ],
            [
              70.89489029868999,
              29.27188951757646
            ],
            [
              70.98964392232904,
              29.36436534216259
            ],
            [
              70.96681655201155,
              29.45857805600112
            ],
            [
              71.02297055402856,
              29.5725431011588
            ],
            [
              71.10384456995436,
              29.68140937494976
            ],
            [
              71.16058430423125,
              29.82424150789217
            ],
            [
              71.19999251189441,
              29.90962386115659
            ],
            [
              71.24018576663126,
              29.94735558465151
            ],
            [
              71.29090011037648,
              30.06824453769774
            ],
            [
              71.30353065666486,
              30.17403243573193
            ],
            [
              71.35546012499998,
              30.3064593521392
            ],
            [
              71.25160567541697,
              30.36960632087314
            ],
            [
              71.07706385769097,
              30.1674575850825
            ],
            [
              70.95626698085852,
              30.17916151484047
            ],
            [
              70.95176884092277,
              30.24578025882563
            ],
            [
              70.74141495946192,
              30.2886050990494
            ],
            [
              70.73371673899172,
              30.47558354627382
            ],
            [
              70.57126677600668,
              30.45332851695915
            ],
            [
              70.53295502507517,
              30.33302647592297
            ],
            [
              70.53596999733537,
              30.08353864884037
            ],
            [
              70.30820360199493,
              29.99896142555021
            ],
            [
              70.24706176614129,
              29.97181060832806
            ],
            [
              69.9841129471311,
              29.94085275779887
            ]
          ]
        ]
      }
    },
    {
      "type": "Feature",
      "properties": {
        "bu_name": "SARGODHA",
        "color": "#5E35B1"
      },
      "geometry": {
        "type": "Polygon",
        "coordinates": [
          [
            [
              71.18054533529909,
              32.87367153739677
            ],
            [
              70.89343292408043,
              31.4656373299096
            ],
            [
              70.97902272173972,
              31.46959286215797
            ],
            [
              71.04071067989884,
              31.52070736681848
            ],
            [
              71.08529571238738,
              31.51158349053378
            ],
            [
              71.089349778956,
              31.50066042015643
            ],
            [
              71.22968500603635,
              31.33035810125998
            ],
            [
              71.2249380745008,
              31.48300210441748
            ],
            [
              71.43718901266895,
              31.37526821083975
            ],
            [
              71.68823176514044,
              31.32854155766695
            ],
            [
              72.3379134817688,
              31.64371911094995
            ],
            [
              72.40398968307865,
              31.66891759964838
            ],
            [
              72.53756813373744,
              31.717781520277
            ],
            [
              72.60614724715296,
              31.76647452085087
            ],
            [
              72.68925178776757,
              31.71336492294441
            ],
            [
              72.72926689159655,
              31.71378644134958
            ],
            [
              72.79957628115554,
              31.73503473378057
            ],
            [
              72.84619985257741,
              31.74363030584711
            ],
            [
              72.87786870614518,
              31.74617812690581
            ],
            [
              72.94602648987606,
              31.74188823321124
            ],
            [
              73.0302979285432,
              31.85711452679686
            ],
            [
              73.12110746977899,
              31.89327297463634
            ],
            [
              73.23209260930736,
              31.97775188987365
            ],
            [
              73.32700332333474,
              32.09693859226384
            ],
            [
              73.27195730747648,
              32.28377246707082
            ],
            [
              73.15271856384894,
              32.57449154216813
            ],
            [
              72.51261299775393,
              32.67627407836085
            ],
            [
              72.17101536660184,
              32.63329577455445
            ],
            [
              71.88977885249692,
              32.84272937798651
            ],
            [
              71.55025816346038,
              33.19633884254959
            ],
            [
              71.18054533529909,
              32.87367153739677
            ]
          ]
        ]
      }
    }
  ]
}